{ "type": "FeatureCollection", "features": [{"type":"Feature","geometry":{"type":"Point","coordinates":[53.423474142327905,16.746771202130986]},"properties":{"@id":2485583555,"@type":"node","@version":2,"@changeset":54229806,"@uid":6265428,"@user":"anonyMous8","@timestamp":1512121828,"amenity":"place_of_worship","building":"mosque","name":"مسجد","religion":"muslim"}},{"type":"Feature","geometry":{"type":"Point","coordinates":[53.993778163567185,17.111552464699983]},"properties":{"@id":2535369561,"@type":"node","@version":1,"@changeset":18938968,"@uid":17422,"@user":"meppen7","@timestamp":1384626330,"amenity":"place_of_worship","building":"mosque","religion":"muslim"}},{"type":"Feature","geometry":{"type":"Point","coordinates":[54.38791167922318,17.04004600395048]},"properties":{"@id":3511796040,"@type":"node","@version":3,"@changeset":42189883,"@uid":2952340,"@user":"rehan727","@timestamp":1473976846,"name":"Mosque Sheikha Salma Mashani","amenity":"place_of_worship","building":"mosque","religion":"muslim"}},{"type":"Feature","geometry":{"type":"Polygon","coordinates":[[[54.040822768583894,17.001185102425993],[54.04116885736585,17.001070078485085],[54.041043631732464,17.000725647488665],[54.04069745913148,17.000840671640944],[54.040822768583894,17.001185102425993]]]},"properties":{"@id":344423225,"@type":"way","@version":2,"@changeset":33336709,"@uid":3149147,"@user":"DhofarMap","@timestamp":1439560495,"name":"جامع بيت فاضل","amenity":"place_of_worship","name:en":"Bait Fadhil Mosque","building":"mosque","religion":"muslim","addr:city":"Awqad Bayt Fadhil, Salalah","denomination":"sunni"}},{"type":"Feature","geometry":{"type":"Point","coordinates":[54.15483769029379,17.08062113868823]},"properties":{"@id":4416783126,"@type":"node","@version":1,"@changeset":42411206,"@uid":2952340,"@user":"rehan727","@timestamp":1474747009,"amenity":"place_of_worship","building":"mosque","religion":"muslim"}},{"type":"Feature","geometry":{"type":"Point","coordinates":[54.691399186849594,16.991611742910578]},"properties":{"@id":4403395433,"@type":"node","@version":2,"@changeset":42407980,"@uid":2952340,"@user":"rehan727","@timestamp":1474735683,"amenity":"place_of_worship","building":"mosque","religion":"muslim"}},{"type":"Feature","geometry":{"type":"Polygon","coordinates":[[[54.093457851558924,17.01768914357025],[54.09388968721032,17.017574770956656],[54.09390578046441,17.017630234068832],[54.09450123086572,17.017472500781892],[54.094432666897774,17.017235740303974],[54.094467451795936,17.01722652315],[54.09441573545337,17.017047870571545],[54.0943603310734,17.01685647408027],[54.094313476234674,17.016868977374628],[54.09424742683768,17.016640952420175],[54.09368919208646,17.016788747888057],[54.093707548454404,17.016852065867326],[54.09326774999499,17.01696852280368],[54.09329733811319,17.017070873403],[54.09327009692788,17.017078166983126],[54.093278059735894,17.01710581846561],[54.09320077858865,17.01712633666446],[54.093330446630716,17.017574049615504],[54.093417869880795,17.017550966696845],[54.093457851558924,17.01768914357025]]]},"properties":{"@id":59297808,"@type":"way","@version":12,"@changeset":50380022,"@uid":3319178,"@user":"Ranger444","@timestamp":1500385801,"name":"Sultan Qaboos Mosque","source":"Kaart Ground Survey 2017","amenity":"place_of_worship","name:ar":"جامع السلطان قابوس","name:en":"Sultan Qaboos Mosque","building":"mosque","religion":"muslim","addr:street":"23rd July Street","denomination":"ibadi"}},{"type":"Feature","geometry":{"type":"Polygon","coordinates":[[[54.10034257918596,17.023005830063468],[54.10064298659563,17.022898112878096],[54.10057316534221,17.02271866424482],[54.10027812235057,17.022805863959476],[54.10034257918596,17.023005830063468]]]},"properties":{"@id":444177980,"@type":"way","@version":2,"@changeset":42612960,"@uid":2952340,"@user":"rehan727","@timestamp":1475521557,"name":"Sultan Qaboos Mosque","amenity":"place_of_worship","building":"mosque","religion":"muslim"}},{"type":"Feature","geometry":{"type":"Polygon","coordinates":[[[54.13041072897613,17.006222039760203],[54.1308369487524,17.006099805058],[54.13073309697211,17.005768207959292],[54.130306877195835,17.005890362723846],[54.13041072897613,17.006222039760203]]]},"properties":{"@id":548584172,"@type":"way","@version":1,"@changeset":54845983,"@uid":166143,"@user":"mustermannxx","@timestamp":1513963277,"amenity":"place_of_worship","building":"mosque","historic":"ruins","name":"Al Baleed Mosque","religion":"muslim","ruins":"yes"}},{"type":"Feature","geometry":{"type":"Point","coordinates":[54.60151802748442,19.72432750364854]},"properties":{"@id":2478491637,"@type":"node","@version":1,"@changeset":18120567,"@uid":17422,"@user":"meppen7","@timestamp":1380595677,"amenity":"place_of_worship","building":"mosque","religion":"muslim"}},{"type":"Feature","geometry":{"type":"Point","coordinates":[55.0686573330313,17.054943803704617]},"properties":{"@id":4945011922,"@type":"node","@version":2,"@changeset":51076171,"@uid":4260390,"@user":"IbnTēšfīn","@timestamp":1502616072,"amenity":"place_of_worship","building":"mosque","name":"مسجد عامر رويه","religion":"muslim"}},{"type":"Feature","geometry":{"type":"Point","coordinates":[55.071195121854544,17.051285375826595]},"properties":{"@id":4943268627,"@type":"node","@version":2,"@changeset":51076171,"@uid":4260390,"@user":"IbnTēšfīn","@timestamp":1502616072,"addr:street":"سدح","amenity":"place_of_worship","building":"mosque","name":"مسجد والي سدح","name:ar":"مسجد والي سدح","name:en":"Mosque","religion":"muslim"}},{"type":"Feature","geometry":{"type":"Point","coordinates":[55.20691498182714,18.1858261445997]},"properties":{"@id":2477843999,"@type":"node","@version":1,"@changeset":18113601,"@uid":17422,"@user":"meppen7","@timestamp":1380558290,"amenity":"place_of_worship","building":"mosque","religion":"muslim"}},{"type":"Feature","geometry":{"type":"Point","coordinates":[55.96305853687227,24.406877332614087]},"properties":{"@id":4578799290,"@type":"node","@version":3,"@changeset":56943917,"@uid":6853562,"@user":"Nick Glencross","@timestamp":1520361209,"amenity":"place_of_worship","building":"mosque","name":"جامع السلطان قابوس","name:ar":"جامع السلطان قابوس","religion":"muslim"}},{"type":"Feature","geometry":{"type":"Point","coordinates":[56.15227463655174,26.144199714179294]},"properties":{"@id":4729032325,"@type":"node","@version":3,"@changeset":55518759,"@uid":4860517,"@user":"ألبرشت شونكا","@timestamp":1516188659,"addr:city":"بخة","amenity":"place_of_worship","building":"mosque","name":"مسجد","name:ar":"مسجد","religion":"muslim"}},{"type":"Feature","geometry":{"type":"Point","coordinates":[55.81793988123536,18.110423331291898]},"properties":{"@id":3706067248,"@type":"node","@version":4,"@changeset":45993684,"@uid":4260390,"@user":"IbnTēšfīn","@timestamp":1486807285,"name":"مسجد","amenity":"place_of_worship","building":"mosque","religion":"muslim"}},{"type":"Feature","geometry":{"type":"Polygon","coordinates":[[[56.33268177509308,25.287304358152397],[56.332735335454345,25.28694982483553],[56.332582449540496,25.28693095375135],[56.33257524110377,25.286978245137504],[56.33221238851547,25.286933303163593],[56.33217207156122,25.287199544327578],[56.33253492414951,25.28724441041551],[56.332528721541166,25.2872854113361],[56.33268177509308,25.287304358152397]]]},"properties":{"@id":441112671,"@type":"way","@version":1,"@changeset":41972279,"@uid":1306,"@user":"PlaneMad","@timestamp":1473231992,"amenity":"place_of_worship","building":"mosque","religion":"muslim"}},{"type":"Feature","geometry":{"type":"Polygon","coordinates":[[[55.74980657547712,24.255571610162463],[55.749808168038726,24.255366270360582],[55.749559393152595,24.25536466554506],[55.74955771677196,24.25557000534951],[55.74980657547712,24.255571610162463]]]},"properties":{"@id":475761046,"@type":"way","@version":1,"@changeset":46234101,"@uid":959668,"@user":"Tomas Runa","@timestamp":1487571623,"building":"mosque"}},{"type":"Feature","geometry":{"type":"Polygon","coordinates":[[[56.25542803667486,26.200396253605987],[56.25548084266484,26.200192743091833],[56.25523793511093,26.200142053425807],[56.255185129120946,26.200345564028567],[56.25542803667486,26.200396253605987]]]},"properties":{"@id":243363852,"@type":"way","@version":3,"@changeset":56836434,"@uid":4860517,"@user":"ألبرشت شونكا","@timestamp":1520039709,"amenity":"place_of_worship","building":"mosque","denomination":"sunni","name":"مسجد","name:ar":"مسجد","religion":"muslim"}},{"type":"Feature","geometry":{"type":"Point","coordinates":[56.71118522062898,24.371778766134042]},"properties":{"@id":4308236692,"@type":"node","@version":3,"@changeset":56877622,"@uid":6853562,"@user":"Nick Glencross","@timestamp":1520186984,"amenity":"place_of_worship","building":"mosque","denomination":"sunni","name":"جامع الشيخ خليفة","name:ar":"جامع الشيخ خليفة","name:en":"Sheikh Khalifa Mosque","religion":"muslim"}},{"type":"Feature","geometry":{"type":"Point","coordinates":[56.50920524261892,23.261699960448993]},"properties":{"@id":4078847032,"@type":"node","@version":1,"@changeset":38071235,"@uid":2327556,"@user":"khalid_05","@timestamp":1458938479,"name":"مسجد","amenity":"place_of_worship","building":"mosque","religion":"muslim"}},{"type":"Feature","geometry":{"type":"Point","coordinates":[56.49238167330623,23.260779203324105]},"properties":{"@id":4078847031,"@type":"node","@version":1,"@changeset":38071235,"@uid":2327556,"@user":"khalid_05","@timestamp":1458938479,"name":"مسجد","amenity":"place_of_worship","building":"mosque","religion":"muslim"}},{"type":"Feature","geometry":{"type":"Point","coordinates":[56.50177066214383,23.24729785776006]},"properties":{"@id":4078847023,"@type":"node","@version":1,"@changeset":38071235,"@uid":2327556,"@user":"khalid_05","@timestamp":1458938478,"name":"مسجد","amenity":"place_of_worship","building":"mosque","religion":"muslim"}},{"type":"Feature","geometry":{"type":"Point","coordinates":[56.51304977014661,23.253319349913284]},"properties":{"@id":4078847028,"@type":"node","@version":1,"@changeset":38071235,"@uid":2327556,"@user":"khalid_05","@timestamp":1458938479,"name":"مسجد","amenity":"place_of_worship","building":"mosque","religion":"muslim"}},{"type":"Feature","geometry":{"type":"Point","coordinates":[56.504653533920646,23.249713449164815]},"properties":{"@id":4078847024,"@type":"node","@version":1,"@changeset":38071235,"@uid":2327556,"@user":"khalid_05","@timestamp":1458938479,"name":"مسجد","amenity":"place_of_worship","building":"mosque","religion":"muslim"}},{"type":"Feature","geometry":{"type":"Point","coordinates":[56.50619672611356,23.250727312965196]},"properties":{"@id":4078847026,"@type":"node","@version":1,"@changeset":38071235,"@uid":2327556,"@user":"khalid_05","@timestamp":1458938479,"name":"مسجد","amenity":"place_of_worship","building":"mosque","religion":"muslim"}},{"type":"Feature","geometry":{"type":"Point","coordinates":[56.50981762446463,23.69919214692264]},"properties":{"@id":3722498454,"@type":"node","@version":2,"@changeset":46424220,"@uid":4260390,"@user":"IbnTēšfīn","@timestamp":1488138228,"name":"المسجد الجامع","amenity":"place_of_worship","building":"mosque","religion":"muslim"}},{"type":"Feature","geometry":{"type":"Point","coordinates":[56.50960405357182,23.6945017673155]},"properties":{"@id":3722495179,"@type":"node","@version":2,"@changeset":46424220,"@uid":4260390,"@user":"IbnTēšfīn","@timestamp":1488138228,"name":"مسجد النخل","amenity":"place_of_worship","building":"mosque","religion":"muslim"}},{"type":"Feature","geometry":{"type":"Polygon","coordinates":[[[57.021622247993946,23.91949464693991],[57.021638341248035,23.919335353191073],[57.021447820588946,23.919330449484292],[57.02143717557192,23.91948974323917],[57.021622247993946,23.91949464693991]]]},"properties":{"@id":369137028,"@type":"way","@version":2,"@changeset":46424341,"@uid":4260390,"@user":"IbnTēšfīn","@timestamp":1488138519,"name":"الجامع القصف","amenity":"place_of_worship","building":"mosque","religion":"muslim"}},{"type":"Feature","geometry":{"type":"Point","coordinates":[57.02022213488817,23.917408411950944]},"properties":{"@id":3729518186,"@type":"node","@version":2,"@changeset":46424341,"@uid":4260390,"@user":"IbnTēšfīn","@timestamp":1488138519,"name":"مسجد صغير القصف","amenity":"place_of_worship","building":"mosque","religion":"muslim"}},{"type":"Feature","geometry":{"type":"Point","coordinates":[56.51743912138045,23.253396129132966]},"properties":{"@id":4078847029,"@type":"node","@version":1,"@changeset":38071235,"@uid":2327556,"@user":"khalid_05","@timestamp":1458938479,"name":"مسجد","amenity":"place_of_worship","building":"mosque","religion":"muslim"}},{"type":"Feature","geometry":{"type":"Point","coordinates":[56.52151783928275,23.257919017143195]},"properties":{"@id":4078847030,"@type":"node","@version":1,"@changeset":38071235,"@uid":2327556,"@user":"khalid_05","@timestamp":1458938479,"name":"مسجد","amenity":"place_of_worship","building":"mosque","religion":"muslim"}},{"type":"Feature","geometry":{"type":"Polygon","coordinates":[[[57.066986029967666,23.99312032464229],[57.06721695140004,23.992772972767327],[57.06717353314161,23.992748851074552],[57.067186357453465,23.99272955371707],[57.06699047237635,23.992620967738887],[57.06674672663212,23.992987617345662],[57.066986029967666,23.99312032464229]]]},"properties":{"@id":220562437,"@type":"way","@version":5,"@changeset":42406116,"@uid":4260390,"@user":"IbnTēšfīn","@timestamp":1474728240,"name":"مسجد الرضوان","amenity":"place_of_worship","name:en":"Al- Rathawan Mosque","building":"mosque","religion":"muslim"}},{"type":"Feature","geometry":{"type":"Point","coordinates":[57.09925568662584,23.976769265905176]},"properties":{"@id":3729554503,"@type":"node","@version":2,"@changeset":46424349,"@uid":4260390,"@user":"IbnTēšfīn","@timestamp":1488138537,"name":"مسجد","amenity":"place_of_worship","building":"mosque","religion":"muslim"}},{"type":"Feature","geometry":{"type":"Polygon","coordinates":[[[56.84726374223828,23.76780585722237],[56.847377736121416,23.767797419119105],[56.84735929593444,23.767687416886403],[56.84724831953645,23.767701531543494],[56.84726374223828,23.76780585722237]]]},"properties":{"@id":383271433,"@type":"way","@version":2,"@changeset":46424305,"@uid":4260390,"@user":"IbnTēšfīn","@timestamp":1488138448,"name":"مسجد","amenity":"place_of_worship","building":"mosque","religion":"muslim"}},{"type":"Feature","geometry":{"type":"Polygon","coordinates":[[[56.84895529411733,23.767944011908085],[56.84895219281316,23.767836924779687],[56.84877349063754,23.76783976304999],[56.84877349063754,23.767935573813787],[56.84895529411733,23.767944011908085]]]},"properties":{"@id":383271434,"@type":"way","@version":2,"@changeset":46424305,"@uid":4260390,"@user":"IbnTēšfīn","@timestamp":1488138449,"name":"مسجد","amenity":"place_of_worship","building":"mosque","religion":"muslim"}},{"type":"Feature","geometry":{"type":"Polygon","coordinates":[[[57.31264024972916,22.993837950005485],[57.3127262480557,22.993035336089036],[57.31158656068146,22.992931864749536],[57.31150056235492,22.99373440212166],[57.31264024972916,22.993837950005485]]]},"properties":{"@id":370525349,"@type":"way","@version":2,"@changeset":56798618,"@uid":1238662,"@user":"Krawujewatz","@timestamp":1519931676,"amenity":"place_of_worship","building":"mosque","name":"جامع السلطان قابوس","religion":"muslim"}},{"type":"Feature","geometry":{"type":"Point","coordinates":[57.61318721808493,22.79257830872743]},"properties":{"@id":2971357256,"@type":"node","@version":2,"@changeset":33618257,"@uid":3188581,"@user":"k_3mri","@timestamp":1440675404,"name":"جامع السلطان قابوس بولاية منح","amenity":"place_of_worship","building":"mosque","religion":"muslim","addr:city":"ولاية منح"}},{"type":"Feature","geometry":{"type":"Point","coordinates":[57.565164947882295,22.90160100194349]},"properties":{"@id":4348149389,"@type":"node","@version":2,"@changeset":46420039,"@uid":4260390,"@user":"IbnTēšfīn","@timestamp":1488127721,"name":"مسجد أبو بكر","amenity":"place_of_worship","building":"mosque","religion":"muslim","addr:street":"طريق إزكي - فرق"}},{"type":"Feature","geometry":{"type":"Point","coordinates":[57.786672078073025,18.977198547778755]},"properties":{"@id":2487456512,"@type":"node","@version":1,"@changeset":18239643,"@uid":17422,"@user":"meppen7","@timestamp":1381196705,"amenity":"place_of_worship","building":"mosque","religion":"muslim"}},{"type":"Feature","geometry":{"type":"Point","coordinates":[57.57161792367697,22.91115827007141]},"properties":{"@id":4348149189,"@type":"node","@version":2,"@changeset":46420039,"@uid":4260390,"@user":"IbnTēšfīn","@timestamp":1488127721,"name":"جامع عرفة","amenity":"place_of_worship","building":"mosque","religion":"muslim","addr:street":"حي التراث"}},{"type":"Feature","geometry":{"type":"Polygon","coordinates":[[[57.42651158943772,23.43307875434057],[57.426521480083466,23.432971316513374],[57.42645476013422,23.432973008448343],[57.42645962163806,23.43276566934796],[57.426518965512514,23.432766822941772],[57.426521480083466,23.432659461767386],[57.42643824778497,23.43265784673474],[57.42643665522337,23.432726524058467],[57.426418885588646,23.432726216433352],[57.4264179635793,23.432764823379145],[57.42635652422905,23.432763669785317],[57.42635794915259,23.432706143893327],[57.42628016509116,23.432704528861237],[57.42628091946244,23.432671920590096],[57.426092494279146,23.4326682290872],[57.42609165608883,23.43270083735925],[57.42595821619034,23.432710450645473],[57.425958132371306,23.432974238946485],[57.42600188590586,23.432975008007816],[57.426000544801354,23.433033610468186],[57.42608386091888,23.433035225496255],[57.42608293890953,23.433072217324224],[57.42627144791186,23.433075908815837],[57.42627236992121,23.433038916988906],[57.42635007016361,23.433040532016918],[57.42632836103439,23.432971316513374],[57.426413018256426,23.432972239387],[57.42641176097095,23.433024612454304],[57.42642969824374,23.43302507389093],[57.42642835713923,23.433077139313028],[57.42651158943772,23.43307875434057]]]},"properties":{"@id":290149995,"@type":"way","@version":2,"@changeset":33718880,"@uid":3202418,"@user":"Asma Ali","@timestamp":1441087854,"name":"جامع السلطان قابوس الرستاق","amenity":"place_of_worship","building":"mosque","religion":"muslim","addr:city":"الرستاق"}},{"type":"Feature","geometry":{"type":"Point","coordinates":[57.53064449876547,23.30350372968823]},"properties":{"@id":3661128507,"@type":"node","@version":2,"@changeset":46424182,"@uid":4260390,"@user":"IbnTēšfīn","@timestamp":1488138138,"name":"مسجد المشرع","amenity":"place_of_worship","building":"mosque","religion":"muslim"}},{"type":"Feature","geometry":{"type":"Point","coordinates":[57.53343366086483,23.30655492386481]},"properties":{"@id":3661127292,"@type":"node","@version":2,"@changeset":46424182,"@uid":4260390,"@user":"IbnTēšfīn","@timestamp":1488138138,"name":"مسجد الصخرة (الغوج)","amenity":"place_of_worship","building":"mosque","religion":"muslim"}},{"type":"Feature","geometry":{"type":"Point","coordinates":[57.626032484695315,19.61580047566241]},"properties":{"@id":2487457263,"@type":"node","@version":1,"@changeset":18239643,"@uid":17422,"@user":"meppen7","@timestamp":1381196782,"amenity":"place_of_worship","building":"mosque","religion":"muslim"}},{"type":"Feature","geometry":{"type":"Point","coordinates":[57.72831978276372,22.812708368892658]},"properties":{"@id":4594117789,"@type":"node","@version":2,"@changeset":46420039,"@uid":4260390,"@user":"IbnTēšfīn","@timestamp":1488127721,"name":"جامع حبل الحديد","amenity":"place_of_worship","building":"mosque","religion":"muslim"}},{"type":"Feature","geometry":{"type":"Point","coordinates":[57.77950261719525,22.926094823126647]},"properties":{"@id":4574353290,"@type":"node","@version":2,"@changeset":46420039,"@uid":4260390,"@user":"IbnTēšfīn","@timestamp":1488127721,"name":"مسجد الشيخ درويش المحروقي","amenity":"place_of_worship","building":"mosque","religion":"muslim","denomination":"ibadi"}},{"type":"Feature","geometry":{"type":"Point","coordinates":[58.346387995406985,23.536676321819698]},"properties":{"@id":4553821191,"@type":"node","@version":2,"@changeset":46419629,"@uid":4260390,"@user":"IbnTēšfīn","@timestamp":1488126787,"name":"مسجد الهدى","amenity":"place_of_worship","building":"mosque","religion":"muslim"}},{"type":"Feature","geometry":{"type":"Point","coordinates":[58.144501224160194,23.65078105789729]},"properties":{"@id":4382834706,"@type":"node","@version":2,"@changeset":46424155,"@uid":4260390,"@user":"IbnTēšfīn","@timestamp":1488138058,"name":"مسجد الصفوة","amenity":"place_of_worship","building":"mosque","religion":"muslim"}},{"type":"Feature","geometry":{"type":"Point","coordinates":[58.45107218250632,22.97860251766842]},"properties":{"@id":3719727976,"@type":"node","@version":2,"@changeset":46419456,"@uid":4260390,"@user":"IbnTēšfīn","@timestamp":1488126343,"name":"مسجد","amenity":"place_of_worship","building":"mosque","religion":"muslim"}},{"type":"Feature","geometry":{"type":"Point","coordinates":[58.20299752056599,23.66703037208501]},"properties":{"@id":4382834910,"@type":"node","@version":2,"@changeset":46424140,"@uid":4260390,"@user":"IbnTēšfīn","@timestamp":1488138018,"name":"مسجد","amenity":"place_of_worship","building":"mosque","religion":"muslim"}},{"type":"Feature","geometry":{"type":"Point","coordinates":[58.20790386758745,23.665402161311903]},"properties":{"@id":4382834707,"@type":"node","@version":2,"@changeset":46424140,"@uid":4260390,"@user":"IbnTēšfīn","@timestamp":1488138018,"name":"مسجد الرائد شنون","amenity":"place_of_worship","building":"mosque","religion":"muslim"}},{"type":"Feature","geometry":{"type":"Polygon","coordinates":[[[58.20702292956412,23.664393856539093],[58.20713642053306,23.664384029866838],[58.20712627843022,23.664284918623324],[58.20701278746128,23.664294745303025],[58.20702292956412,23.664393856539093]]]},"properties":{"@id":293027827,"@type":"way","@version":2,"@changeset":46576597,"@uid":4260390,"@user":"IbnTēšfīn","@timestamp":1488645553,"name":"مسجد حمد","amenity":"place_of_worship","building":"mosque","religion":"muslim"}},{"type":"Feature","geometry":{"type":"Point","coordinates":[58.87117828242481,23.20954122432083]},"properties":{"@id":2628381124,"@type":"node","@version":1,"@changeset":20082937,"@uid":110639,"@user":"aighes","@timestamp":1390131446,"amenity":"place_of_worship","building":"mosque","religion":"muslim"}},{"type":"Feature","geometry":{"type":"Polygon","coordinates":[[[58.21045967750251,23.613670338461404],[58.210486583411694,23.613256843227475],[58.20965585298836,23.61321145390521],[58.20962894707918,23.613625026083],[58.21045967750251,23.613670338461404]]]},"properties":{"@id":221020443,"@type":"way","@version":5,"@changeset":37326553,"@uid":1823346,"@user":"user_1823346","@timestamp":1455967127,"name":"جامع السيدة ميزون","amenity":"place_of_worship","building":"mosque","religion":"muslim"}},{"type":"Feature","geometry":{"type":"Point","coordinates":[58.22836568579078,23.621662659295254]},"properties":{"@id":4686803502,"@type":"node","@version":2,"@changeset":46576597,"@uid":4260390,"@user":"IbnTēšfīn","@timestamp":1488645553,"name":"جامع الحيل الجنوبية","amenity":"place_of_worship","building":"mosque","religion":"muslim"}},{"type":"Feature","geometry":{"type":"Point","coordinates":[58.489400865510106,23.502071315179194]},"properties":{"@id":4412901190,"@type":"node","@version":2,"@changeset":46419498,"@uid":4260390,"@user":"IbnTēšfīn","@timestamp":1488126451,"name":"مسجد الحواري","amenity":"place_of_worship","building":"mosque","religion":"muslim"}},{"type":"Feature","geometry":{"type":"Polygon","coordinates":[[[58.46114446409047,23.609996912942663],[58.461144883185625,23.60996273570086],[58.46134361810982,23.60996450216527],[58.46134437248111,23.609901063037498],[58.461285950616,23.60990052541763],[58.4612877946347,23.60973255750544],[58.46134738996625,23.609733171928923],[58.4613480605185,23.609663204436387],[58.46115385182202,23.609661514770906],[58.46115401946008,23.609635248150113],[58.461111187934875,23.60963494093815],[58.46111085265875,23.609665201313746],[58.46105779521167,23.6096647404959],[58.461057459935546,23.60969730495333],[58.460897197946906,23.60969615290898],[58.46089644357562,23.60976965331801],[58.46087481826544,23.609781864980718],[58.46086375415325,23.609807363543226],[58.46086266450584,23.609837163061783],[58.460874734446406,23.60985805344187],[58.460893761366606,23.609872876393396],[58.46089309081435,23.609935009886925],[58.461062321439385,23.609936622746062],[58.46106206998229,23.609961353250455],[58.4611083380878,23.609961737264456],[58.46110791899264,23.60999660573154],[58.46114446409047,23.609996912942663]]]},"properties":{"@id":225008847,"@type":"way","@version":3,"@changeset":50211647,"@uid":3321091,"@user":"FoxyMarcie","@timestamp":1499804139,"name":"جامع آل البيت","source":"Kaart Ground Survey 2017","amenity":"place_of_worship","building":"mosque","religion":"muslim"}},{"type":"Feature","geometry":{"type":"Polygon","coordinates":[[[58.476160895079374,23.613325963992594],[58.476501535624266,23.613313675859246],[58.47650086507201,23.613289867597587],[58.47656884230673,23.613289176389927],[58.47656934522092,23.613171824636368],[58.47649994306266,23.613173437455686],[58.47649885341525,23.613151472390925],[58.47616357728839,23.613161226108957],[58.47616106271744,23.613210301891755],[58.4761337377131,23.613211530706096],[58.47613273188472,23.61327312501099],[58.476160392165184,23.613274046621328],[58.476160895079374,23.613325963992594]]]},"properties":{"@id":225009404,"@type":"way","@version":4,"@changeset":50361543,"@uid":3319178,"@user":"Ranger444","@timestamp":1500321483,"name":"مسجد أسماء","source":"Kaart Ground Survey 2017","amenity":"place_of_worship","building":"mosque","religion":"muslim"}},{"type":"Feature","geometry":{"type":"Polygon","coordinates":[[[58.484539445489645,23.607295731320747],[58.484819484874606,23.607278911164144],[58.48481713794172,23.60724680693231],[58.48492962308228,23.60724004814567],[58.4849233366549,23.607151031820777],[58.4849838539958,23.607147345207224],[58.484964994713664,23.606882139172953],[58.484906824305654,23.60688567218476],[58.48490288481116,23.606830910491126],[58.48477724008262,23.60683843734519],[58.48477464169264,23.60680180153105],[58.484581019729376,23.606813475837725],[58.4845847915858,23.60686616381406],[58.484499882906675,23.60687123291852],[58.48450507968664,23.606945118934277],[58.484365018084645,23.606953567436534],[58.48438144661486,23.607183750511496],[58.48453089594841,23.607174841197462],[58.484539445489645,23.607295731320747]]]},"properties":{"@id":244005249,"@type":"way","@version":3,"@changeset":50211647,"@uid":3321091,"@user":"FoxyMarcie","@timestamp":1499804141,"source":"Kaart Ground Survey 2017","amenity":"place_of_worship","building":"mosque","religion":"muslim"}},{"type":"Feature","geometry":{"type":"Polygon","coordinates":[[[58.447743728756905,23.586705630225282],[58.44791564159095,23.58670463161181],[58.44791547395289,23.586686272485807],[58.448037849739194,23.586685504321494],[58.44803676009178,23.586518274841126],[58.447914216667414,23.5865189661899],[58.44791413284838,23.586499147523625],[58.4477423876524,23.58650014613866],[58.447743728756905,23.586705630225282]]]},"properties":{"@id":505893520,"@type":"way","@version":2,"@changeset":50117066,"@uid":3321091,"@user":"FoxyMarcie","@timestamp":1499456864,"source":"Kaart Ground Survey 2017","amenity":"place_of_worship","name:en":"jame mosque, Qurm 29","building":"mosque","addr:street":"Way 2725"}},{"type":"Feature","geometry":{"type":"Polygon","coordinates":[[[58.512187488377094,23.60943425456476],[58.51241782307625,23.609406605442175],[58.51242092438042,23.609428033512685],[58.512557884678245,23.609411674448424],[58.5125482454896,23.60934370366654],[58.51252385415137,23.609346622186706],[58.512499798089266,23.609177962335423],[58.5125186573714,23.609175658237604],[58.5125099401921,23.609114522827014],[58.51239217445254,23.60912865463301],[58.51239804178476,23.60916982118958],[58.51215396076441,23.609199006427076],[58.512161672115326,23.609252845492904],[58.51213459856808,23.609256071227946],[58.512152284383774,23.609380338770308],[58.51217935793102,23.609377113038306],[58.512187488377094,23.60943425456476]]]},"properties":{"@id":261390211,"@type":"way","@version":3,"@changeset":50361543,"@uid":3319178,"@user":"Ranger444","@timestamp":1500321484,"name":"مسجد كلية الشريعة والقانون","source":"Kaart Ground Survey 2017","amenity":"place_of_worship","building":"mosque","religion":"muslim"}},{"type":"Feature","geometry":{"type":"Polygon","coordinates":[[[59.36415153555572,22.701885223162876],[59.36441824771464,22.70188336735842],[59.3644202593714,22.701717427408568],[59.36415153555572,22.701711859988293],[59.36415153555572,22.701885223162876]]]},"properties":{"@id":551975361,"@type":"way","@version":1,"@changeset":55302488,"@uid":496808,"@user":"Nicor","@timestamp":1515527369,"amenity":"place_of_worship","building":"mosque","religion":"muslim"}},{"type":"Feature","geometry":{"type":"Polygon","coordinates":[[[58.42219107784331,23.59629166209504],[58.42228629626334,23.59629112441938],[58.422284787520766,23.596253256685188],[58.422320326790214,23.59625233495521],[58.4223226737231,23.596217232400548],[58.42236408032477,23.59621730921141],[58.422364918515086,23.596054930969856],[58.42231873422861,23.59605370199469],[58.42231823131442,23.596015603759056],[58.42214464209974,23.596015526948094],[58.42214514501393,23.59605746573108],[58.422103989869356,23.596057619352976],[58.42210616916418,23.59621815413078],[58.42214682139456,23.59621730921141],[58.42214765958488,23.596251566846902],[58.42219208367169,23.596252719009385],[58.42219107784331,23.59629166209504]]]},"properties":{"@id":224449131,"@type":"way","@version":5,"@changeset":50117066,"@uid":3321091,"@user":"FoxyMarcie","@timestamp":1499456852,"name":"جامع الزواوي","source":"Kaart Ground Survey 2017","amenity":"place_of_worship","name:en":"Al Zawawi Masjid","building":"mosque","religion":"muslim"}},{"type":"Feature","geometry":{"type":"Point","coordinates":[58.4062403999269,23.58035990273794]},"properties":{"@id":4239323998,"@type":"node","@version":2,"@changeset":46419543,"@uid":4260390,"@user":"IbnTēšfīn","@timestamp":1488126573,"name":"مسجد الرحمة","amenity":"place_of_worship","name:en":"Masjid Ar-Rahmah","building":"mosque","religion":"muslim"}},{"type":"Feature","geometry":{"type":"Polygon","coordinates":[[[58.43124294653535,23.584052056955926],[58.43124655075371,23.583616421501972],[58.43046116642654,23.583611044225833],[58.43046007677913,23.58374470788179],[58.4304319974035,23.583782271953694],[58.43042252585292,23.583827133735113],[58.43043467961252,23.583871918683116],[58.430458065122366,23.583903337273867],[58.43045689165592,23.584046756515605],[58.43124294653535,23.584052056955926]]]},"properties":{"@id":36068412,"@type":"way","@version":7,"@changeset":44153342,"@uid":4260390,"@user":"IbnTēšfīn","@timestamp":1480842558,"name":"جامع السلطان سعيد بن تيمور","amenity":"place_of_worship","name:en":"Masjid As' Sultan Said Bin Taimur","building":"mosque","religion":"muslim","denomination":"ibadi"}},{"type":"Feature","geometry":{"type":"Polygon","coordinates":[[[58.559583462774754,23.623120775766864],[58.55961346998811,23.62298523236447],[58.559395959600806,23.62294491489476],[58.55936595238745,23.623080304748655],[58.559583462774754,23.623120775766864]]]},"properties":{"@id":284774381,"@type":"way","@version":4,"@changeset":41572329,"@uid":4260390,"@user":"IbnTēšfīn","@timestamp":1471682354,"name":"Masjid Azwa","amenity":"place_of_worship","building":"mosque","religion":"muslim"}},{"type":"Feature","geometry":{"type":"Polygon","coordinates":[[[58.56263464316726,23.62148026880162],[58.56286187656224,23.621241816846947],[58.562815859913826,23.621204570689244],[58.562655095010996,23.62106795015619],[58.56253364123404,23.621110725684105],[58.56246457435191,23.62118652357809],[58.56264461763203,23.621324372725795],[58.56256633065641,23.62141023078459],[58.56255853548646,23.62142620437072],[58.56263464316726,23.62148026880162]]]},"properties":{"@id":284769671,"@type":"way","@version":6,"@changeset":42074086,"@uid":4260390,"@user":"IbnTēšfīn","@timestamp":1473586360,"name":"مسجد الرسول الأعظم","amenity":"place_of_worship","name:en":"Masjid Rasool Al Azam","building":"mosque","religion":"muslim","denomination":"shia"}},{"type":"Feature","geometry":{"type":"Polygon","coordinates":[[[58.56385253369808,23.620089561736975],[58.563864352181554,23.61995624230984],[58.56359554454684,23.61993635189981],[58.563583893701434,23.62006967134718],[58.56385253369808,23.620089561736975]]]},"properties":{"@id":284628715,"@type":"way","@version":5,"@changeset":47123758,"@uid":5548719,"@user":"Andrea Verona","@timestamp":1490359155,"name":"مسجد","amenity":"place_of_worship","name:en":"Masjid","building":"mosque","religion":"muslim","addr:street":"Jama Mosque"}}]}